0 TITAN 3C TRANSTAGE DEB
1 01915U 65082FZ  13285.63647466  .00000336  00000-0  67107-4 0  8916
2 01915 031.8793 127.9501 0030988 339.7662 020.1708 14.54905455540748
0 TITAN 3C TRANSTAGE DEB
1 01915U 65082FZ  13289.61619347  .00000418  00000-0  85801-4 0  8928
2 01915 031.8777 104.6120 0030243 015.3025 344.8523 14.54909562541322
0 TITAN 3C TRANSTAGE DEB
1 01915U 65082FZ  13292.49805020  .00000466  00000-0  96730-4 0  8930
2 01915 031.8782 087.7215 0030203 041.4171 318.8751 14.54911568541741
0 TITAN 3C TRANSTAGE DEB
1 01915U 65082FZ  13294.76235733  .00000548  00000-0  11542-3 0  8949
2 01915 031.8784 074.4507 0030247 061.9257 298.4435 14.54913838542071
